start=new Date('2022-06-16T00:00:00.000Z').valueOf();
sats=[{"ELEMENT_SET_NO":"999","GP_ID":"206214094","SITE":"AFETR","NORAD_CAT_ID":"46756","TIME_SYSTEM":"UTC","TLE_LINE2":"2 46756  53.0544 325.2263 0001230  47.1387 312.9706 15.06341079 91206","SEMIMAJOR_AXIS":"6925.529","EPHEMERIS_TYPE":"0","APOAPSIS":"548.246","MEAN_MOTION_DOT":"0.00034234","MEAN_MOTION":"15.06341079","MEAN_ANOMALY":"312.9706","COUNTRY_CODE":"US","MEAN_MOTION_DDOT":"0.0000000000000","RCS_SIZE":"LARGE","TLE_LINE1":"1 46756U 20074T   22166.80869755  .00034234  00000-0  23097-2 0  9995","OBJECT_ID":"2020-074T","FILE":"3496916","EPOCH":"2022-06-15T19:24:31.468320","REV_AT_EPOCH":"9120","OBJECT_TYPE":"PAYLOAD","ECCENTRICITY":"0.00012300","PERIOD":"95.596","PERIAPSIS":"546.542","RA_OF_ASC_NODE":"325.2263","CLASSIFICATION_TYPE":"U","ARG_OF_PERICENTER":"47.1387","REF_FRAME":"TEME","CENTER_NAME":"EARTH","OBJECT_NAME":"STARLINK-1925","DECAY_DATE":null,"LAUNCH_DATE":"2020-10-24","BSTAR":"0.00230970000000","INCLINATION":"53.0544","MEAN_ELEMENT_THEORY":"SGP4"},{"RCS_SIZE":"LARGE","TLE_LINE1":"1 46757U 20074U   22166.55800921 -.00002261  00000-0 -13296-3 0  9996","MEAN_MOTION":"15.06387565","MEAN_MOTION_DOT":"-0.00002261","APOAPSIS":"548.303","MEAN_MOTION_DDOT":"0.0000000000000","COUNTRY_CODE":"US","MEAN_ANOMALY":"286.4302","SITE":"AFETR","NORAD_CAT_ID":"46757","ELEMENT_SET_NO":"999","GP_ID":"206236053","SEMIMAJOR_AXIS":"6925.387","EPHEMERIS_TYPE":"0","TLE_LINE2":"2 46757  53.0539 326.1970 0001518  73.6854 286.4302 15.06387565 91148","TIME_SYSTEM":"UTC","REF_FRAME":"TEME","ARG_OF_PERICENTER":"73.6854","OBJECT_NAME":"STARLINK-1926","CENTER_NAME":"EARTH","RA_OF_ASC_NODE":"326.1970","CLASSIFICATION_TYPE":"U","INCLINATION":"53.0539","MEAN_ELEMENT_THEORY":"SGP4","DECAY_DATE":null,"LAUNCH_DATE":"2020-10-24","BSTAR":"-0.00013296000000","PERIOD":"95.593","REV_AT_EPOCH":"9114","EPOCH":"2022-06-15T13:23:31.995744","FILE":"3496999","OBJECT_ID":"2020-074U","OBJECT_TYPE":"PAYLOAD","ECCENTRICITY":"0.00015180","PERIAPSIS":"546.200"},{"RCS_SIZE":"LARGE","TLE_LINE1":"1 46758U 20074V   22166.76069863  .00000318  00000-0  40224-4 0  9993","MEAN_MOTION":"15.06399976","MEAN_MOTION_DOT":"0.00000318","APOAPSIS":"548.399","MEAN_MOTION_DDOT":"0.0000000000000","COUNTRY_CODE":"US","MEAN_ANOMALY":"313.6808","NORAD_CAT_ID":"46758","SITE":"AFETR","ELEMENT_SET_NO":"999","GP_ID":"206236303","SEMIMAJOR_AXIS":"6925.349","EPHEMERIS_TYPE":"0","TIME_SYSTEM":"UTC","TLE_LINE2":"2 46758  53.0544 325.0384 0001711  46.4323 313.6808 15.06399976 91183","REF_FRAME":"TEME","ARG_OF_PERICENTER":"46.4323","OBJECT_NAME":"STARLINK-1928","CENTER_NAME":"EARTH","RA_OF_ASC_NODE":"325.0384","CLASSIFICATION_TYPE":"U","INCLINATION":"53.0544","MEAN_ELEMENT_THEORY":"SGP4","DECAY_DATE":null,"BSTAR":"0.00004022400000","LAUNCH_DATE":"2020-10-24","PERIOD":"95.592","REV_AT_EPOCH":"9118","EPOCH":"2022-06-15T18:15:24.361632","FILE":"3496999","OBJECT_ID":"2020-074V","OBJECT_TYPE":"PAYLOAD","ECCENTRICITY":"0.00017110","PERIAPSIS":"546.029"},{"MEAN_MOTION_DOT":"0.00000139","APOAPSIS":"548.034","MEAN_MOTION":"15.06398615","MEAN_ANOMALY":"293.8834","COUNTRY_CODE":"US","MEAN_MOTION_DDOT":"0.0000000000000","RCS_SIZE":"LARGE","TLE_LINE1":"1 46759U 20074W   22166.75609216  .00000139  00000-0  28230-4 0  9999","ELEMENT_SET_NO":"999","GP_ID":"206237554","SITE":"AFETR","NORAD_CAT_ID":"46759","TIME_SYSTEM":"UTC","TLE_LINE2":"2 46759  53.0555 335.0715 0001178  66.2279 293.8834 15.06398615 91033","SEMIMAJOR_AXIS":"6925.353","EPHEMERIS_TYPE":"0","RA_OF_ASC_NODE":"335.0715","CLASSIFICATION_TYPE":"U","ARG_OF_PERICENTER":"66.2279","REF_FRAME":"TEME","CENTER_NAME":"EARTH","OBJECT_NAME":"STARLINK-1833","DECAY_DATE":null,"LAUNCH_DATE":"2020-10-24","BSTAR":"0.00002823000000","INCLINATION":"53.0555","MEAN_ELEMENT_THEORY":"SGP4","OBJECT_ID":"2020-074W","FILE":"3496999","EPOCH":"2022-06-15T18:08:46.362624","REV_AT_EPOCH":"9103","ECCENTRICITY":"0.00011780","OBJECT_TYPE":"PAYLOAD","PERIOD":"95.592","PERIAPSIS":"546.402"},{"DECAY_DATE":null,"LAUNCH_DATE":"2020-10-24","BSTAR":"0.00006119300000","INCLINATION":"53.0569","MEAN_ELEMENT_THEORY":"SGP4","RA_OF_ASC_NODE":"334.7239","CLASSIFICATION_TYPE":"U","REF_FRAME":"TEME","ARG_OF_PERICENTER":"68.7339","OBJECT_NAME":"STARLINK-1896","CENTER_NAME":"EARTH","PERIAPSIS":"546.198","REV_AT_EPOCH":"9105","EPOCH":"2022-06-15T20:00:13.538592","FILE":"3496999","OBJECT_ID":"2020-074X","ECCENTRICITY":"0.00014490","OBJECT_TYPE":"PAYLOAD","PERIOD":"95.592","MEAN_MOTION":"15.06403926","MEAN_MOTION_DOT":"0.00000630","APOAPSIS":"548.205","MEAN_MOTION_DDOT":"0.0000000000000","MEAN_ANOMALY":"291.3804","COUNTRY_CODE":"US","RCS_SIZE":"LARGE","TLE_LINE1":"1 46760U 20074X   22166.83349003  .00000630  00000-0  61193-4 0  9996","TIME_SYSTEM":"UTC","TLE_LINE2":"2 46760  53.0569 334.7239 0001449  68.7339 291.3804 15.06403926 91056","SEMIMAJOR_AXIS":"6925.337","EPHEMERIS_TYPE":"0","ELEMENT_SET_NO":"999","GP_ID":"206237805","NORAD_CAT_ID":"46760","SITE":"AFETR"},{"GP_ID":"206206368","ELEMENT_SET_NO":"999","NORAD_CAT_ID":"46763","SITE":"AFETR","TLE_LINE2":"2 46763  53.0536 298.5984 0004204  21.7826 338.3357 15.42167263 91538","TIME_SYSTEM":"UTC","EPHEMERIS_TYPE":"0","SEMIMAJOR_AXIS":"6817.851","COUNTRY_CODE":"US","MEAN_ANOMALY":"338.3357","MEAN_MOTION_DDOT":"0.0000000000000","MEAN_MOTION_DOT":"0.00010592","APOAPSIS":"442.582","MEAN_MOTION":"15.42167263","TLE_LINE1":"1 46763U 20074AA  22166.48178039  .00010592  00000-0  25242-3 0  9991","RCS_SIZE":"LARGE","ECCENTRICITY":"0.00042040","OBJECT_TYPE":"PAYLOAD","OBJECT_ID":"2020-074AA","FILE":"3496794","REV_AT_EPOCH":"9153","EPOCH":"2022-06-15T11:33:45.825696","PERIOD":"93.375","PERIAPSIS":"436.850","CLASSIFICATION_TYPE":"U","RA_OF_ASC_NODE":"298.5984","CENTER_NAME":"EARTH","OBJECT_NAME":"STARLINK-1902","ARG_OF_PERICENTER":"21.7826","REF_FRAME":"TEME","BSTAR":"0.00025242000000","LAUNCH_DATE":"2020-10-24","DECAY_DATE":null,"MEAN_ELEMENT_THEORY":"SGP4","INCLINATION":"53.0536"},{"TLE_LINE1":"1 46764U 20074AB  22166.75977856 -.00000739  00000-0 -30715-4 0  9992","RCS_SIZE":"LARGE","COUNTRY_CODE":"US","MEAN_ANOMALY":"291.8275","MEAN_MOTION_DDOT":"0.0000000000000","MEAN_MOTION_DOT":"-0.00000739","APOAPSIS":"548.344","MEAN_MOTION":"15.06399262","EPHEMERIS_TYPE":"0","SEMIMAJOR_AXIS":"6925.351","TIME_SYSTEM":"UTC","TLE_LINE2":"2 46764  53.0549 335.0556 0001629  68.2887 291.8275 15.06399262 91040","SITE":"AFETR","NORAD_CAT_ID":"46764","GP_ID":"206236803","ELEMENT_SET_NO":"999","MEAN_ELEMENT_THEORY":"SGP4","INCLINATION":"53.0549","LAUNCH_DATE":"2020-10-24","BSTAR":"-0.00003071500000","DECAY_DATE":null,"CENTER_NAME":"EARTH","OBJECT_NAME":"STARLINK-1903","ARG_OF_PERICENTER":"68.2887","REF_FRAME":"TEME","CLASSIFICATION_TYPE":"U","RA_OF_ASC_NODE":"335.0556","PERIAPSIS":"546.088","PERIOD":"95.592","OBJECT_TYPE":"PAYLOAD","ECCENTRICITY":"0.00016290","FILE":"3496999","OBJECT_ID":"2020-074AB","REV_AT_EPOCH":"9104","EPOCH":"2022-06-15T18:14:04.867584"},{"SEMIMAJOR_AXIS":"6925.371","EPHEMERIS_TYPE":"0","TLE_LINE2":"2 46765  53.0546 334.8024 0001475  73.2255 286.8895 15.06392633 91046","TIME_SYSTEM":"UTC","NORAD_CAT_ID":"46765","SITE":"AFETR","ELEMENT_SET_NO":"999","GP_ID":"206237055","RCS_SIZE":"LARGE","TLE_LINE1":"1 46765U 20074AC  22166.81506905 -.00001513  00000-0 -82683-4 0  9995","MEAN_MOTION":"15.06392633","MEAN_MOTION_DOT":"-0.00001513","APOAPSIS":"548.258","MEAN_MOTION_DDOT":"0.0000000000000","COUNTRY_CODE":"US","MEAN_ANOMALY":"286.8895","PERIAPSIS":"546.215","PERIOD":"95.593","EPOCH":"2022-06-15T19:33:41.965920","REV_AT_EPOCH":"9104","FILE":"3496999","OBJECT_ID":"2020-074AC","OBJECT_TYPE":"PAYLOAD","ECCENTRICITY":"0.00014750","INCLINATION":"53.0546","MEAN_ELEMENT_THEORY":"SGP4","DECAY_DATE":null,"BSTAR":"-0.00008268300000","LAUNCH_DATE":"2020-10-24","REF_FRAME":"TEME","ARG_OF_PERICENTER":"73.2255","OBJECT_NAME":"STARLINK-1906","CENTER_NAME":"EARTH","RA_OF_ASC_NODE":"334.8024","CLASSIFICATION_TYPE":"U"},{"EPHEMERIS_TYPE":"0","SEMIMAJOR_AXIS":"6925.355","TIME_SYSTEM":"UTC","TLE_LINE2":"2 46766  53.0557 336.3129 0001524  82.0332 278.0830 15.06397848 91002","SITE":"AFETR","NORAD_CAT_ID":"46766","GP_ID":"206207607","ELEMENT_SET_NO":"999","TLE_LINE1":"1 46766U 20074AD  22166.47596175 -.00001378  00000-0 -73660-4 0  9990","RCS_SIZE":"LARGE","MEAN_ANOMALY":"278.0830","COUNTRY_CODE":"US","MEAN_MOTION_DDOT":"0.0000000000000","MEAN_MOTION_DOT":"-0.00001378","APOAPSIS":"548.276","MEAN_MOTION":"15.06397848","PERIAPSIS":"546.165","PERIOD":"95.592","OBJECT_TYPE":"PAYLOAD","ECCENTRICITY":"0.00015240","OBJECT_ID":"2020-074AD","FILE":"3496794","EPOCH":"2022-06-15T11:25:23.095200","REV_AT_EPOCH":"9100","MEAN_ELEMENT_THEORY":"SGP4","INCLINATION":"53.0557","LAUNCH_DATE":"2020-10-24","BSTAR":"-0.00007366000000","DECAY_DATE":null,"CENTER_NAME":"EARTH","OBJECT_NAME":"STARLINK-1916","ARG_OF_PERICENTER":"82.0332","REF_FRAME":"TEME","CLASSIFICATION_TYPE":"U","RA_OF_ASC_NODE":"336.3129"},{"LAUNCH_DATE":"2020-10-24","BSTAR":"-0.00006591500000","DECAY_DATE":null,"MEAN_ELEMENT_THEORY":"SGP4","INCLINATION":"53.0576","CLASSIFICATION_TYPE":"U","RA_OF_ASC_NODE":"334.7085","OBJECT_NAME":"STARLINK-1917","CENTER_NAME":"EARTH","REF_FRAME":"TEME","ARG_OF_PERICENTER":"66.8449","PERIAPSIS":"546.213","OBJECT_TYPE":"PAYLOAD","ECCENTRICITY":"0.00015020","EPOCH":"2022-06-15T20:05:33.380160","REV_AT_EPOCH":"9105","OBJECT_ID":"2020-074AE","FILE":"3496999","PERIOD":"95.593","MEAN_MOTION_DDOT":"0.0000000000000","COUNTRY_CODE":"US","MEAN_ANOMALY":"293.2698","MEAN_MOTION":"15.06386983","APOAPSIS":"548.294","MEAN_MOTION_DOT":"-0.00001263","TLE_LINE1":"1 46767U 20074AE  22166.83719190 -.00001263  00000-0 -65915-4 0  9992","RCS_SIZE":"LARGE","TIME_SYSTEM":"UTC","TLE_LINE2":"2 46767  53.0576 334.7085 0001502  66.8449 293.2698 15.06386983 91056","EPHEMERIS_TYPE":"0","SEMIMAJOR_AXIS":"6925.388","GP_ID":"206236054","ELEMENT_SET_NO":"999","NORAD_CAT_ID":"46767","SITE":"AFETR"}];
